CCSDS_OMM_VERS = 2.0
CREATION_DATE  = 
ORIGINATOR     = 

OBJECT_NAME    = STARLINK-36496
OBJECT_ID      = 2026-002AA
CENTER_NAME    = EARTH
REF_FRAME      = TEME
TIME_SYSTEM    = UTC
MEAN_ELEMENT_THEORY = SGP/SGP4

EPOCH          = 2026-02-03T06:00:02.000160
MEAN_MOTION    = 15.50547620
ECCENTRICITY   = .00015758
INCLINATION    = 43.0004
RA_OF_ASC_NODE = 160.3734
ARG_OF_PERICENTER = 258.9768
MEAN_ANOMALY   = 140.0477

EPHEMERIS_TYPE = 0
CLASSIFICATION_TYPE = U
NORAD_CAT_ID   = 67329
ELEMENT_SET_NO = 999
REV_AT_EPOCH   = 586
BSTAR          = .91518846E-3
MEAN_MOTION_DOT = .53657E-3
MEAN_MOTION_DDOT = 0

CCSDS_OMM_VERS = 2.0
CREATION_DATE  = 
ORIGINATOR     = 

OBJECT_NAME    = STARLINK-36483
OBJECT_ID      = 2026-002AB
CENTER_NAME    = EARTH
REF_FRAME      = TEME
TIME_SYSTEM    = UTC
MEAN_ELEMENT_THEORY = SGP/SGP4

EPOCH          = 2026-02-03T06:00:02.000160
MEAN_MOTION    = 15.45191530
ECCENTRICITY   = .00014718
INCLINATION    = 43.0000
RA_OF_ASC_NODE = 160.3926
ARG_OF_PERICENTER = 271.8008
MEAN_ANOMALY   = 119.4881

EPHEMERIS_TYPE = 0
CLASSIFICATION_TYPE = U
NORAD_CAT_ID   = 67330
ELEMENT_SET_NO = 999
REV_AT_EPOCH   = 603
BSTAR          = -.46912612E-1
MEAN_MOTION_DOT = -.2029769E-1
MEAN_MOTION_DDOT = 0

CCSDS_OMM_VERS = 2.0
CREATION_DATE  = 
ORIGINATOR     = 

OBJECT_NAME    = STARLINK-36494
OBJECT_ID      = 2026-002AC
CENTER_NAME    = EARTH
REF_FRAME      = TEME
TIME_SYSTEM    = UTC
MEAN_ELEMENT_THEORY = SGP/SGP4

EPOCH          = 2026-02-02T17:28:25.878720
MEAN_MOTION    = 15.50587831
ECCENTRICITY   = .00018598
INCLINATION    = 42.9981
RA_OF_ASC_NODE = 163.4312
ARG_OF_PERICENTER = 272.5580
MEAN_ANOMALY   = 87.5067

EPHEMERIS_TYPE = 0
CLASSIFICATION_TYPE = U
NORAD_CAT_ID   = 67331
ELEMENT_SET_NO = 999
REV_AT_EPOCH   = 588
BSTAR          = .92685356E-3
MEAN_MOTION_DOT = .5443E-3
MEAN_MOTION_DDOT = 0

CCSDS_OMM_VERS = 2.0
CREATION_DATE  = 
ORIGINATOR     = 

OBJECT_NAME    = STARLINK-36492
OBJECT_ID      = 2026-002AD
CENTER_NAME    = EARTH
REF_FRAME      = TEME
TIME_SYSTEM    = UTC
MEAN_ELEMENT_THEORY = SGP/SGP4

EPOCH          = 2026-02-03T06:00:02.000160
MEAN_MOTION    = 15.43573088
ECCENTRICITY   = .00017092
INCLINATION    = 43.0003
RA_OF_ASC_NODE = 160.4180
ARG_OF_PERICENTER = 266.0248
MEAN_ANOMALY   = 115.3316

EPHEMERIS_TYPE = 0
CLASSIFICATION_TYPE = U
NORAD_CAT_ID   = 67332
ELEMENT_SET_NO = 999
REV_AT_EPOCH   = 603
BSTAR          = -.49694172E-1
MEAN_MOTION_DOT = -.2033454E-1
MEAN_MOTION_DDOT = 0

CCSDS_OMM_VERS = 2.0
CREATION_DATE  = 
ORIGINATOR     = 

OBJECT_NAME    = STARLINK-36427
OBJECT_ID      = 2026-002AE
CENTER_NAME    = EARTH
REF_FRAME      = TEME
TIME_SYSTEM    = UTC
MEAN_ELEMENT_THEORY = SGP/SGP4

EPOCH          = 2026-02-03T00:00:02.000160
MEAN_MOTION    = 15.40686738
ECCENTRICITY   = .00015915
INCLINATION    = 43.0017
RA_OF_ASC_NODE = 162.2368
ARG_OF_PERICENTER = 278.7027
MEAN_ANOMALY   = 350.9497

EPHEMERIS_TYPE = 0
CLASSIFICATION_TYPE = U
NORAD_CAT_ID   = 67333
ELEMENT_SET_NO = 999
REV_AT_EPOCH   = 590
BSTAR          = .99371968E-4
MEAN_MOTION_DOT = .3848E-4
MEAN_MOTION_DDOT = 0

CCSDS_OMM_VERS = 2.0
CREATION_DATE  = 
ORIGINATOR     = 

OBJECT_NAME    = STARLINK-35343
OBJECT_ID      = 2026-003A
CENTER_NAME    = EARTH
REF_FRAME      = TEME
TIME_SYSTEM    = UTC
MEAN_ELEMENT_THEORY = SGP/SGP4

EPOCH          = 2026-02-03T06:00:02.000160
MEAN_MOTION    = 15.50531877
ECCENTRICITY   = .00012439
INCLINATION    = 42.9995
RA_OF_ASC_NODE = 62.9746
ARG_OF_PERICENTER = 271.0293
MEAN_ANOMALY   = 339.8884

EPHEMERIS_TYPE = 0
CLASSIFICATION_TYPE = U
NORAD_CAT_ID   = 67334
ELEMENT_SET_NO = 999
REV_AT_EPOCH   = 508
BSTAR          = .69210973E-3
MEAN_MOTION_DOT = .40402E-3
MEAN_MOTION_DDOT = 0

CCSDS_OMM_VERS = 2.0
CREATION_DATE  = 
ORIGINATOR     = 

OBJECT_NAME    = STARLINK-36486
OBJECT_ID      = 2026-003B
CENTER_NAME    = EARTH
REF_FRAME      = TEME
TIME_SYSTEM    = UTC
MEAN_ELEMENT_THEORY = SGP/SGP4

EPOCH          = 2026-02-03T06:00:02.000160
MEAN_MOTION    = 15.50527116
ECCENTRICITY   = .00012621
INCLINATION    = 42.9994
RA_OF_ASC_NODE = 62.9702
ARG_OF_PERICENTER = 267.4654
MEAN_ANOMALY   = 345.3734

EPHEMERIS_TYPE = 0
CLASSIFICATION_TYPE = U
NORAD_CAT_ID   = 67335
ELEMENT_SET_NO = 999
REV_AT_EPOCH   = 513
BSTAR          = .78157305E-3
MEAN_MOTION_DOT = .45692E-3
MEAN_MOTION_DDOT = 0

CCSDS_OMM_VERS = 2.0
CREATION_DATE  = 
ORIGINATOR     = 

OBJECT_NAME    = STARLINK-36480
OBJECT_ID      = 2026-003C
CENTER_NAME    = EARTH
REF_FRAME      = TEME
TIME_SYSTEM    = UTC
MEAN_ELEMENT_THEORY = SGP/SGP4

EPOCH          = 2026-02-03T06:00:02.000160
MEAN_MOTION    = 15.50530388
ECCENTRICITY   = .00013947
INCLINATION    = 42.9994
RA_OF_ASC_NODE = 62.9653
ARG_OF_PERICENTER = 265.2220
MEAN_ANOMALY   = 349.5328

EPHEMERIS_TYPE = 0
CLASSIFICATION_TYPE = U
NORAD_CAT_ID   = 67336
ELEMENT_SET_NO = 999
REV_AT_EPOCH   = 513
BSTAR          = .68150865E-3
MEAN_MOTION_DOT = .39773E-3
MEAN_MOTION_DDOT = 0

CCSDS_OMM_VERS = 2.0
CREATION_DATE  = 
ORIGINATOR     = 

OBJECT_NAME    = STARLINK-36410
OBJECT_ID      = 2026-003D
CENTER_NAME    = EARTH
REF_FRAME      = TEME
TIME_SYSTEM    = UTC
MEAN_ELEMENT_THEORY = SGP/SGP4

EPOCH          = 2026-02-03T06:00:02.000160
MEAN_MOTION    = 15.50522392
ECCENTRICITY   = .00017472
INCLINATION    = 42.9995
RA_OF_ASC_NODE = 62.9613
ARG_OF_PERICENTER = 253.5786
MEAN_ANOMALY   = 3.0906

EPHEMERIS_TYPE = 0
CLASSIFICATION_TYPE = U
NORAD_CAT_ID   = 67337
ELEMENT_SET_NO = 999
REV_AT_EPOCH   = 513
BSTAR          = .99031392E-3
MEAN_MOTION_DOT = .58071E-3
MEAN_MOTION_DDOT = 0

CCSDS_OMM_VERS = 2.0
CREATION_DATE  = 
ORIGINATOR     = 

OBJECT_NAME    = STARLINK-36413
OBJECT_ID      = 2026-003E
CENTER_NAME    = EARTH
REF_FRAME      = TEME
TIME_SYSTEM    = UTC
MEAN_ELEMENT_THEORY = SGP/SGP4

EPOCH          = 2026-02-03T06:00:02.000160
MEAN_MOTION    = 15.50517022
ECCENTRICITY   = .00013803
INCLINATION    = 42.9995
RA_OF_ASC_NODE = 62.9561
ARG_OF_PERICENTER = 267.3685
MEAN_ANOMALY   = 351.2195

EPHEMERIS_TYPE = 0
CLASSIFICATION_TYPE = U
NORAD_CAT_ID   = 67338
ELEMENT_SET_NO = 999
REV_AT_EPOCH   = 513
BSTAR          = .14398971E-2
MEAN_MOTION_DOT = .84863E-3
MEAN_MOTION_DDOT = 0

CCSDS_OMM_VERS = 2.0
CREATION_DATE  = 
ORIGINATOR     = 

OBJECT_NAME    = STARLINK-36451
OBJECT_ID      = 2026-003F
CENTER_NAME    = EARTH
REF_FRAME      = TEME
TIME_SYSTEM    = UTC
MEAN_ELEMENT_THEORY = SGP/SGP4

EPOCH          = 2026-02-03T06:00:02.000160
MEAN_MOTION    = 15.50523338
ECCENTRICITY   = .00013929
INCLINATION    = 42.9994
RA_OF_ASC_NODE = 62.9507
ARG_OF_PERICENTER = 274.0279
MEAN_ANOMALY   = 346.4838

EPHEMERIS_TYPE = 0
CLASSIFICATION_TYPE = U
NORAD_CAT_ID   = 67339
ELEMENT_SET_NO = 999
REV_AT_EPOCH   = 513
BSTAR          = .77332751E-3
MEAN_MOTION_DOT = .45198E-3
MEAN_MOTION_DDOT = 0

CCSDS_OMM_VERS = 2.0
CREATION_DATE  = 
ORIGINATOR     = 

OBJECT_NAME    = STARLINK-36339
OBJECT_ID      = 2026-003G
CENTER_NAME    = EARTH
REF_FRAME      = TEME
TIME_SYSTEM    = UTC
MEAN_ELEMENT_THEORY = SGP/SGP4

EPOCH          = 2026-02-03T06:00:02.000160
MEAN_MOTION    = 15.50531220
ECCENTRICITY   = .00012362
INCLINATION    = 42.9994
RA_OF_ASC_NODE = 62.9459
ARG_OF_PERICENTER = 271.0411
MEAN_ANOMALY   = 351.3802

EPHEMERIS_TYPE = 0
CLASSIFICATION_TYPE = U
NORAD_CAT_ID   = 67340
ELEMENT_SET_NO = 999
REV_AT_EPOCH   = 513
BSTAR          = .67518728E-3
MEAN_MOTION_DOT = .394E-3
MEAN_MOTION_DDOT = 0

