STARLINK-36496          
1 67329U 26002AA  26034.25002315  .00053657  00000+0  91519-3 0  9993
2 67329  43.0004 160.3734 0001575 258.9768 140.0477 15.50547620  5864
STARLINK-36483          
1 67330U 26002AB  26034.25002315 -.02029769  00000+0 -46913-1 0  9992
2 67330  43.0000 160.3926 0001471 271.8008 119.4881 15.45191530  6039
STARLINK-36494          
1 67331U 26002AC  26033.72807730  .00054430  00000+0  92685-3 0  9996
2 67331  42.9981 163.4312 0001859 272.5580  87.5067 15.50587831  5884
STARLINK-36492          
1 67332U 26002AD  26034.25002315 -.02033454  00000+0 -49694-1 0  9999
2 67332  43.0003 160.4180 0001709 266.0248 115.3316 15.43573088  6031
STARLINK-36427          
1 67333U 26002AE  26034.00002315  .00003848  00000+0  99372-4 0  9994
2 67333  43.0017 162.2368 0001591 278.7027 350.9497 15.40686738  5905
STARLINK-35343          
1 67334U 26003A   26034.25002315  .00040402  00000+0  69211-3 0  9998
2 67334  42.9995  62.9746 0001243 271.0293 339.8884 15.50531877  5089
STARLINK-36486          
1 67335U 26003B   26034.25002315  .00045692  00000+0  78157-3 0  9994
2 67335  42.9994  62.9702 0001262 267.4654 345.3734 15.50527116  5135
STARLINK-36480          
1 67336U 26003C   26034.25002315  .00039773  00000+0  68151-3 0  9991
2 67336  42.9994  62.9653 0001394 265.2220 349.5328 15.50530388  5132
STARLINK-36410          
1 67337U 26003D   26034.25002315  .00058071  00000+0  99031-3 0  9995
2 67337  42.9995  62.9613 0001747 253.5786   3.0906 15.50522392  5139
STARLINK-36413          
1 67338U 26003E   26034.25002315  .00084863  00000+0  14399-2 0  9997
2 67338  42.9995  62.9561 0001380 267.3685 351.2195 15.50517022  5138
STARLINK-36451          
1 67339U 26003F   26034.25002315  .00045198  00000+0  77333-3 0  9994
2 67339  42.9994  62.9507 0001392 274.0279 346.4838 15.50523338  5132
STARLINK-36339          
1 67340U 26003G   26034.25002315  .00039400  00000+0  67519-3 0  9990
2 67340  42.9994  62.9459 0001236 271.0411 351.3802 15.50531220  5137
